[{"OBJECT_NAME":"PROTOMETHEE","OBJECT_ID":"2023-174BT","EPOCH":"2026-03-09T23:28:08.029344","MEAN_MOTION":15.30202663,"ECCENTRICITY":0.00088339,"INCLINATION":97.3826,"RA_OF_ASC_NODE":147.9552,"ARG_OF_PERICENTER":148.5993,"MEAN_ANOMALY":211.5776,"EPHEMERIS_TYPE":0,"CLASSIFICATION_TYPE":"U","NORAD_CAT_ID":58321,"ELEMENT_SET_NO":999,"REV_AT_EPOCH":12979,"BSTAR":0.00015715731,"MEAN_MOTION_DOT":4.52e-5,"MEAN_MOTION_DDOT":0},{"OBJECT_NAME":"STARLINK-32183","OBJECT_ID":"2024-144J","EPOCH":"2026-03-09T17:21:31.622688","MEAN_MOTION":15.30201447,"ECCENTRICITY":9.264e-5,"INCLINATION":53.1613,"RA_OF_ASC_NODE":217.0151,"ARG_OF_PERICENTER":121.7532,"MEAN_ANOMALY":238.3559,"EPHEMERIS_TYPE":0,"CLASSIFICATION_TYPE":"U","NORAD_CAT_ID":60433,"ELEMENT_SET_NO":999,"REV_AT_EPOCH":8931,"BSTAR":-7.1841283e-5,"MEAN_MOTION_DOT":-2.486e-5,"MEAN_MOTION_DDOT":0}]
